KUIPER-00276            
1 67794U 26030AG  26062.16231859  .00002602  00000+0  96025-4 0  9990
2 67794  51.8814 251.0593 0018313  47.6892 312.5640 15.31493795  4089
KUIPER-00279            
1 67795U 26030AH  26062.12844110  .00033518  00000+0  97658-3 0  9999
2 67795  51.8793 250.8378 0006269  30.2831 329.8516 15.35063500  4086
CREW DRAGON 12          
1 67796U 26031A   26061.93054995  .00009325  00000+0  18075-3 0  9998
2 67796  51.6319 105.7724 0008215 150.8374 209.3074 15.48408287555021
STARLINK-36800          
1 67797U 26032A   26062.16668981  .00058946  00000+0  39378-3 0  9994
2 67797  97.2840 248.3294 0001534  95.6801 357.9965 15.75164060  3734
STARLINK-36798          
1 67798U 26032B   26062.13771547  .00306218  00000+0  15364-2 0  9991
2 67798  97.2844 248.3272 0001506  80.9528 279.1910 15.80924087  3753
STARLINK-36804          
1 67799U 26032C   26062.16668981 -.00014480  00000+0 -96366-4 0  9994
2 67799  97.2841 248.3333 0001523  85.1072  18.5624 15.75191295  3678
STARLINK-36354          
1 67800U 26032D   26062.16668981 -.00452733  00000+0 -31596-2 0  9996
2 67800  97.2850 248.3600 0001488  83.0468  82.4950 15.75466428  3736
STARLINK-36773          
1 67801U 26032E   26062.16668981  .00051604  00000+0  34516-3 0  9993
2 67801  97.2841 248.3411 0001444  90.3645  31.3119 15.75162760  3672
STARLINK-36739          
1 67802U 26032F   26062.13295637  .00364823  00000+0  18156-2 0  9996
2 67802  97.2842 248.3333 0001574  77.1721 282.9723 15.80951883  3751
STARLINK-36768          
1 67803U 26032G   26062.16668981  .00029421  00000+0  19773-3 0  9995
2 67803  97.2845 248.3545 0001599 100.1098  55.5882 15.75155328  3733
STARLINK-36792          
1 67804U 26032H   26062.16668981  .00141878  00000+0  94086-3 0  9997
2 67804  97.2842 248.3482 0001634  72.8579  68.7485 15.75078716  3673
STARLINK-36782          
1 67805U 26032J   26062.13123370  .00217097  00000+0  11020-2 0  9996
2 67805  97.2842 248.3349 0001550  78.1456 281.9986 15.80898179  3759
STARLINK-36389          
1 67806U 26032K   26062.16668981 -.01938546  00000+0 -13528-1 0  9998
2 67806  97.2847 248.3738 0001981  85.8652 117.6448 15.77458482  3739
STARLINK-36382          
1 67807U 26032L   26062.12935568 -.00559908  00000+0 -32983-2 0  9990
2 67807  97.2835 248.3366 0002833  47.2140 312.9365 15.79544503  3757
STARLINK-36811          
1 67808U 26032M   26062.12792522  .00219243  00000+0  11129-2 0  9994
2 67808  97.2837 248.3392 0001425  73.1784 286.9640 15.80892274  3756
STARLINK-36795          
1 67809U 26032N   26062.16668981  .00034190  00000+0  22936-3 0  9995
2 67809  97.2848 248.3634 0001693  89.1501  88.5186 15.75171532  3739
STARLINK-36807          
1 67810U 26032P   26062.12586269  .00327262  00000+0  16364-2 0  9993
2 67810  97.2830 248.3410 0001468  71.3812 288.7615 15.80943852  3753
