[{"OBJECT_NAME":"KUIPER-00276","OBJECT_ID":"2026-030AG","EPOCH":"2026-03-03T03:53:44.326176","MEAN_MOTION":15.31493795,"ECCENTRICITY":0.0018313,"INCLINATION":51.8814,"RA_OF_ASC_NODE":251.0593,"ARG_OF_PERICENTER":47.6892,"MEAN_ANOMALY":312.564,"EPHEMERIS_TYPE":0,"CLASSIFICATION_TYPE":"U","NORAD_CAT_ID":67794,"ELEMENT_SET_NO":999,"REV_AT_EPOCH":408,"BSTAR":9.6025e-5,"MEAN_MOTION_DOT":2.602e-5,"MEAN_MOTION_DDOT":0},{"OBJECT_NAME":"KUIPER-00279","OBJECT_ID":"2026-030AH","EPOCH":"2026-03-03T03:04:57.311040","MEAN_MOTION":15.350635,"ECCENTRICITY":0.0006269,"INCLINATION":51.8793,"RA_OF_ASC_NODE":250.8378,"ARG_OF_PERICENTER":30.2831,"MEAN_ANOMALY":329.8516,"EPHEMERIS_TYPE":0,"CLASSIFICATION_TYPE":"U","NORAD_CAT_ID":67795,"ELEMENT_SET_NO":999,"REV_AT_EPOCH":408,"BSTAR":0.00097658,"MEAN_MOTION_DOT":0.00033518,"MEAN_MOTION_DDOT":0},{"OBJECT_NAME":"CREW DRAGON 12","OBJECT_ID":"2026-031A","EPOCH":"2026-03-02T22:19:59.515680","MEAN_MOTION":15.48408287,"ECCENTRICITY":0.0008215,"INCLINATION":51.6319,"RA_OF_ASC_NODE":105.7724,"ARG_OF_PERICENTER":150.8374,"MEAN_ANOMALY":209.3074,"EPHEMERIS_TYPE":0,"CLASSIFICATION_TYPE":"U","NORAD_CAT_ID":67796,"ELEMENT_SET_NO":999,"REV_AT_EPOCH":55502,"BSTAR":0.00018075,"MEAN_MOTION_DOT":9.325e-5,"MEAN_MOTION_DDOT":0},{"OBJECT_NAME":"STARLINK-36800","OBJECT_ID":"2026-032A","EPOCH":"2026-03-03T04:00:01.999584","MEAN_MOTION":15.7516406,"ECCENTRICITY":0.0001534,"INCLINATION":97.284,"RA_OF_ASC_NODE":248.3294,"ARG_OF_PERICENTER":95.6801,"MEAN_ANOMALY":357.9965,"EPHEMERIS_TYPE":0,"CLASSIFICATION_TYPE":"U","NORAD_CAT_ID":67797,"ELEMENT_SET_NO":999,"REV_AT_EPOCH":373,"BSTAR":0.00039378,"MEAN_MOTION_DOT":0.00058946,"MEAN_MOTION_DDOT":0},{"OBJECT_NAME":"STARLINK-36798","OBJECT_ID":"2026-032B","EPOCH":"2026-03-03T03:18:18.616608","MEAN_MOTION":15.80924087,"ECCENTRICITY":0.0001506,"INCLINATION":97.2844,"RA_OF_ASC_NODE":248.3272,"ARG_OF_PERICENTER":80.9528,"MEAN_ANOMALY":279.191,"EPHEMERIS_TYPE":0,"CLASSIFICATION_TYPE":"U","NORAD_CAT_ID":67798,"ELEMENT_SET_NO":999,"REV_AT_EPOCH":375,"BSTAR":0.0015364,"MEAN_MOTION_DOT":0.00306218,"MEAN_MOTION_DDOT":0},{"OBJECT_NAME":"STARLINK-36804","OBJECT_ID":"2026-032C","EPOCH":"2026-03-03T04:00:01.999584","MEAN_MOTION":15.75191295,"ECCENTRICITY":0.0001523,"INCLINATION":97.2841,"RA_OF_ASC_NODE":248.3333,"ARG_OF_PERICENTER":85.1072,"MEAN_ANOMALY":18.5624,"EPHEMERIS_TYPE":0,"CLASSIFICATION_TYPE":"U","NORAD_CAT_ID":67799,"ELEMENT_SET_NO":999,"REV_AT_EPOCH":367,"BSTAR":-9.6366e-5,"MEAN_MOTION_DOT":-0.0001448,"MEAN_MOTION_DDOT":0},{"OBJECT_NAME":"STARLINK-36354","OBJECT_ID":"2026-032D","EPOCH":"2026-03-03T04:00:01.999584","MEAN_MOTION":15.75466428,"ECCENTRICITY":0.0001488,"INCLINATION":97.285,"RA_OF_ASC_NODE":248.36,"ARG_OF_PERICENTER":83.0468,"MEAN_ANOMALY":82.495,"EPHEMERIS_TYPE":0,"CLASSIFICATION_TYPE":"U","NORAD_CAT_ID":67800,"ELEMENT_SET_NO":999,"REV_AT_EPOCH":373,"BSTAR":-0.0031596,"MEAN_MOTION_DOT":-0.00452733,"MEAN_MOTION_DDOT":0},{"OBJECT_NAME":"STARLINK-36773","OBJECT_ID":"2026-032E","EPOCH":"2026-03-03T04:00:01.999584","MEAN_MOTION":15.7516276,"ECCENTRICITY":0.0001444,"INCLINATION":97.2841,"RA_OF_ASC_NODE":248.3411,"ARG_OF_PERICENTER":90.3645,"MEAN_ANOMALY":31.3119,"EPHEMERIS_TYPE":0,"CLASSIFICATION_TYPE":"U","NORAD_CAT_ID":67801,"ELEMENT_SET_NO":999,"REV_AT_EPOCH":367,"BSTAR":0.00034516,"MEAN_MOTION_DOT":0.00051604,"MEAN_MOTION_DDOT":0},{"OBJECT_NAME":"STARLINK-36739","OBJECT_ID":"2026-032F","EPOCH":"2026-03-03T03:11:27.430368","MEAN_MOTION":15.80951883,"ECCENTRICITY":0.0001574,"INCLINATION":97.2842,"RA_OF_ASC_NODE":248.3333,"ARG_OF_PERICENTER":77.1721,"MEAN_ANOMALY":282.9723,"EPHEMERIS_TYPE":0,"CLASSIFICATION_TYPE":"U","NORAD_CAT_ID":67802,"ELEMENT_SET_NO":999,"REV_AT_EPOCH":375,"BSTAR":0.0018156,"MEAN_MOTION_DOT":0.00364823,"MEAN_MOTION_DDOT":0},{"OBJECT_NAME":"STARLINK-36768","OBJECT_ID":"2026-032G","EPOCH":"2026-03-03T04:00:01.999584","MEAN_MOTION":15.75155328,"ECCENTRICITY":0.0001599,"INCLINATION":97.2845,"RA_OF_ASC_NODE":248.3545,"ARG_OF_PERICENTER":100.1098,"MEAN_ANOMALY":55.5882,"EPHEMERIS_TYPE":0,"CLASSIFICATION_TYPE":"U","NORAD_CAT_ID":67803,"ELEMENT_SET_NO":999,"REV_AT_EPOCH":373,"BSTAR":0.00019773,"MEAN_MOTION_DOT":0.00029421,"MEAN_MOTION_DDOT":0},{"OBJECT_NAME":"STARLINK-36792","OBJECT_ID":"2026-032H","EPOCH":"2026-03-03T04:00:01.999584","MEAN_MOTION":15.75078716,"ECCENTRICITY":0.0001634,"INCLINATION":97.2842,"RA_OF_ASC_NODE":248.3482,"ARG_OF_PERICENTER":72.8579,"MEAN_ANOMALY":68.7485,"EPHEMERIS_TYPE":0,"CLASSIFICATION_TYPE":"U","NORAD_CAT_ID":67804,"ELEMENT_SET_NO":999,"REV_AT_EPOCH":367,"BSTAR":0.00094086,"MEAN_MOTION_DOT":0.00141878,"MEAN_MOTION_DDOT":0},{"OBJECT_NAME":"STARLINK-36782","OBJECT_ID":"2026-032J","EPOCH":"2026-03-03T03:08:58.591680","MEAN_MOTION":15.80898179,"ECCENTRICITY":0.000155,"INCLINATION":97.2842,"RA_OF_ASC_NODE":248.3349,"ARG_OF_PERICENTER":78.1456,"MEAN_ANOMALY":281.9986,"EPHEMERIS_TYPE":0,"CLASSIFICATION_TYPE":"U","NORAD_CAT_ID":67805,"ELEMENT_SET_NO":999,"REV_AT_EPOCH":375,"BSTAR":0.001102,"MEAN_MOTION_DOT":0.00217097,"MEAN_MOTION_DDOT":0},{"OBJECT_NAME":"STARLINK-36389","OBJECT_ID":"2026-032K","EPOCH":"2026-03-03T04:00:01.999584","MEAN_MOTION":15.77458482,"ECCENTRICITY":0.0001981,"INCLINATION":97.2847,"RA_OF_ASC_NODE":248.3738,"ARG_OF_PERICENTER":85.8652,"MEAN_ANOMALY":117.6448,"EPHEMERIS_TYPE":0,"CLASSIFICATION_TYPE":"U","NORAD_CAT_ID":67806,"ELEMENT_SET_NO":999,"REV_AT_EPOCH":373,"BSTAR":-0.013528,"MEAN_MOTION_DOT":-0.01938546,"MEAN_MOTION_DDOT":0},{"OBJECT_NAME":"STARLINK-36382","OBJECT_ID":"2026-032L","EPOCH":"2026-03-03T03:06:16.330752","MEAN_MOTION":15.79544503,"ECCENTRICITY":0.0002833,"INCLINATION":97.2835,"RA_OF_ASC_NODE":248.3366,"ARG_OF_PERICENTER":47.214,"MEAN_ANOMALY":312.9365,"EPHEMERIS_TYPE":0,"CLASSIFICATION_TYPE":"U","NORAD_CAT_ID":67807,"ELEMENT_SET_NO":999,"REV_AT_EPOCH":375,"BSTAR":-0.0032983,"MEAN_MOTION_DOT":-0.00559908,"MEAN_MOTION_DDOT":0},{"OBJECT_NAME":"STARLINK-36811","OBJECT_ID":"2026-032M","EPOCH":"2026-03-03T03:04:12.739008","MEAN_MOTION":15.80892274,"ECCENTRICITY":0.0001425,"INCLINATION":97.2837,"RA_OF_ASC_NODE":248.3392,"ARG_OF_PERICENTER":73.1784,"MEAN_ANOMALY":286.964,"EPHEMERIS_TYPE":0,"CLASSIFICATION_TYPE":"U","NORAD_CAT_ID":67808,"ELEMENT_SET_NO":999,"REV_AT_EPOCH":375,"BSTAR":0.0011129,"MEAN_MOTION_DOT":0.00219243,"MEAN_MOTION_DDOT":0},{"OBJECT_NAME":"STARLINK-36795","OBJECT_ID":"2026-032N","EPOCH":"2026-03-03T04:00:01.999584","MEAN_MOTION":15.75171532,"ECCENTRICITY":0.0001693,"INCLINATION":97.2848,"RA_OF_ASC_NODE":248.3634,"ARG_OF_PERICENTER":89.1501,"MEAN_ANOMALY":88.5186,"EPHEMERIS_TYPE":0,"CLASSIFICATION_TYPE":"U","NORAD_CAT_ID":67809,"ELEMENT_SET_NO":999,"REV_AT_EPOCH":373,"BSTAR":0.00022936,"MEAN_MOTION_DOT":0.0003419,"MEAN_MOTION_DDOT":0},{"OBJECT_NAME":"STARLINK-36807","OBJECT_ID":"2026-032P","EPOCH":"2026-03-03T03:01:14.536416","MEAN_MOTION":15.80943852,"ECCENTRICITY":0.0001468,"INCLINATION":97.283,"RA_OF_ASC_NODE":248.341,"ARG_OF_PERICENTER":71.3812,"MEAN_ANOMALY":288.7615,"EPHEMERIS_TYPE":0,"CLASSIFICATION_TYPE":"U","NORAD_CAT_ID":67810,"ELEMENT_SET_NO":999,"REV_AT_EPOCH":375,"BSTAR":0.0016364,"MEAN_MOTION_DOT":0.00327262,"MEAN_MOTION_DDOT":0}]
